COSMOS 1933             
1 18958U 88020A   26058.04494086  .00004516  00000+0  22155-3 0  9998
2 18958  82.5100 261.4458 0002948 223.1491 136.9512 15.17871097 48616
SL-3 R/B                
1 19046U 88032B   26058.19837340  .00005673  00000+0  26652-3 0  9991
2 19046  97.5172  41.4890 0024056 271.0220  88.8259 15.19760301 50514
SL-16 R/B               
1 19120U 88039B   26058.12905547  .00000140  00000+0  88999-4 0  9996
2 19120  71.0129  90.8804 0022125 350.0534  10.0150 14.19614201956888
COSMOS 1953             
1 19210U 88050A   26057.75765594  .00008848  00000+0  31926-3 0  9993
2 19210  82.5104 169.2365 0011971 158.2916 201.8833 15.28291854 36119
SL-8 R/B                
1 19257U 88053B   26058.15095824  .00000218  00000+0  79157-4 0  9996
2 19257  74.0475 131.8918 0021131 312.7845  70.7149 14.38908430975089
COSMOS 1975             
1 19573U 88093A   26058.18121210  .00008421  00000+0  30774-3 0  9998
2 19573  82.5206 128.2316 0011246 199.2612 160.8204 15.27879959 17806
SL-14 R/B               
1 19574U 88093B   26058.08957066  .00000546  00000+0  59911-4 0  9999
2 19574  82.5285  51.9960 0022303  74.4542 355.4191 14.85641177999463
SL-16 R/B               
1 19650U 88102B   26057.74459271 -.00000248  00000+0 -10085-3 0  9991
2 19650  71.0003 174.5245 0013303  18.2505 341.9093 14.16150283925346
INTERCOSMOS 24          
1 20261U 89080A   26058.15912664  .00000590  00000+0  17440-3 0  9993
2 20261  82.6039 111.2612 1186978 317.2867  34.1624 12.59539128665472
SL-14 R/B               
1 20262U 89080C   26057.59311252  .00000620  00000+0  18472-3 0  9997
2 20262  82.5970 180.3078 1230125 210.1107 142.3430 12.50476890658769
DELTA 1 R/B             
1 20323U 89089B   26058.13642170  .00000354  00000+0  96008-4 0  9997
2 20323  97.0712 267.2532 0069763 154.8827 205.5791 14.50652937894205
ARIANE 40 R/B           
1 20443U 90005H   26058.11187140  .00000254  00000+0  94477-4 0  9996
2 20443  98.3107 119.0873 0009215 231.8184 128.2175 14.39862304891280
