CCSDS_OMM_VERS = 2.0
CREATION_DATE  = 
ORIGINATOR     = 

OBJECT_NAME    = COSMOS 1933
OBJECT_ID      = 1988-020A
CENTER_NAME    = EARTH
REF_FRAME      = TEME
TIME_SYSTEM    = UTC
MEAN_ELEMENT_THEORY = SGP/SGP4

EPOCH          = 2026-02-27T01:04:42.890304
MEAN_MOTION    = 15.17871097
ECCENTRICITY   = .0002948
INCLINATION    = 82.5100
RA_OF_ASC_NODE = 261.4458
ARG_OF_PERICENTER = 223.1491
MEAN_ANOMALY   = 136.9512

EPHEMERIS_TYPE = 0
CLASSIFICATION_TYPE = U
NORAD_CAT_ID   = 18958
ELEMENT_SET_NO = 999
REV_AT_EPOCH   = 4861
BSTAR          = .22155E-3
MEAN_MOTION_DOT = .4516E-4
MEAN_MOTION_DDOT = 0

CCSDS_OMM_VERS = 2.0
CREATION_DATE  = 
ORIGINATOR     = 

OBJECT_NAME    = SL-3 R/B
OBJECT_ID      = 1988-032B
CENTER_NAME    = EARTH
REF_FRAME      = TEME
TIME_SYSTEM    = UTC
MEAN_ELEMENT_THEORY = SGP/SGP4

EPOCH          = 2026-02-27T04:45:39.461760
MEAN_MOTION    = 15.19760301
ECCENTRICITY   = .0024056
INCLINATION    = 97.5172
RA_OF_ASC_NODE = 41.4890
ARG_OF_PERICENTER = 271.0220
MEAN_ANOMALY   = 88.8259

EPHEMERIS_TYPE = 0
CLASSIFICATION_TYPE = U
NORAD_CAT_ID   = 19046
ELEMENT_SET_NO = 999
REV_AT_EPOCH   = 5051
BSTAR          = .26652E-3
MEAN_MOTION_DOT = .5673E-4
MEAN_MOTION_DDOT = 0

CCSDS_OMM_VERS = 2.0
CREATION_DATE  = 
ORIGINATOR     = 

OBJECT_NAME    = SL-16 R/B
OBJECT_ID      = 1988-039B
CENTER_NAME    = EARTH
REF_FRAME      = TEME
TIME_SYSTEM    = UTC
MEAN_ELEMENT_THEORY = SGP/SGP4

EPOCH          = 2026-02-27T03:05:50.392608
MEAN_MOTION    = 14.19614201
ECCENTRICITY   = .0022125
INCLINATION    = 71.0129
RA_OF_ASC_NODE = 90.8804
ARG_OF_PERICENTER = 350.0534
MEAN_ANOMALY   = 10.0150

EPHEMERIS_TYPE = 0
CLASSIFICATION_TYPE = U
NORAD_CAT_ID   = 19120
ELEMENT_SET_NO = 999
REV_AT_EPOCH   = 95688
BSTAR          = .88999E-4
MEAN_MOTION_DOT = .14E-5
MEAN_MOTION_DDOT = 0

CCSDS_OMM_VERS = 2.0
CREATION_DATE  = 
ORIGINATOR     = 

OBJECT_NAME    = COSMOS 1953
OBJECT_ID      = 1988-050A
CENTER_NAME    = EARTH
REF_FRAME      = TEME
TIME_SYSTEM    = UTC
MEAN_ELEMENT_THEORY = SGP/SGP4

EPOCH          = 2026-02-26T18:11:01.473216
MEAN_MOTION    = 15.28291854
ECCENTRICITY   = .00119711
INCLINATION    = 82.5104
RA_OF_ASC_NODE = 169.2365
ARG_OF_PERICENTER = 158.2916
MEAN_ANOMALY   = 201.8833

EPHEMERIS_TYPE = 0
CLASSIFICATION_TYPE = U
NORAD_CAT_ID   = 19210
ELEMENT_SET_NO = 999
REV_AT_EPOCH   = 3611
BSTAR          = .31925715E-3
MEAN_MOTION_DOT = .8848E-4
MEAN_MOTION_DDOT = 0

CCSDS_OMM_VERS = 2.0
CREATION_DATE  = 
ORIGINATOR     = 

OBJECT_NAME    = SL-8 R/B
OBJECT_ID      = 1988-053B
CENTER_NAME    = EARTH
REF_FRAME      = TEME
TIME_SYSTEM    = UTC
MEAN_ELEMENT_THEORY = SGP/SGP4

EPOCH          = 2026-02-27T03:37:22.791936
MEAN_MOTION    = 14.38908430
ECCENTRICITY   = .0021131
INCLINATION    = 74.0475
RA_OF_ASC_NODE = 131.8918
ARG_OF_PERICENTER = 312.7845
MEAN_ANOMALY   = 70.7149

EPHEMERIS_TYPE = 0
CLASSIFICATION_TYPE = U
NORAD_CAT_ID   = 19257
ELEMENT_SET_NO = 999
REV_AT_EPOCH   = 97508
BSTAR          = .79157E-4
MEAN_MOTION_DOT = .218E-5
MEAN_MOTION_DDOT = 0

CCSDS_OMM_VERS = 2.0
CREATION_DATE  = 
ORIGINATOR     = 

OBJECT_NAME    = COSMOS 1975
OBJECT_ID      = 1988-093A
CENTER_NAME    = EARTH
REF_FRAME      = TEME
TIME_SYSTEM    = UTC
MEAN_ELEMENT_THEORY = SGP/SGP4

EPOCH          = 2026-02-27T04:20:56.725440
MEAN_MOTION    = 15.27879959
ECCENTRICITY   = .0011246
INCLINATION    = 82.5206
RA_OF_ASC_NODE = 128.2316
ARG_OF_PERICENTER = 199.2612
MEAN_ANOMALY   = 160.8204

EPHEMERIS_TYPE = 0
CLASSIFICATION_TYPE = U
NORAD_CAT_ID   = 19573
ELEMENT_SET_NO = 999
REV_AT_EPOCH   = 1780
BSTAR          = .30774E-3
MEAN_MOTION_DOT = .8421E-4
MEAN_MOTION_DDOT = 0

CCSDS_OMM_VERS = 2.0
CREATION_DATE  = 
ORIGINATOR     = 

OBJECT_NAME    = SL-14 R/B
OBJECT_ID      = 1988-093B
CENTER_NAME    = EARTH
REF_FRAME      = TEME
TIME_SYSTEM    = UTC
MEAN_ELEMENT_THEORY = SGP/SGP4

EPOCH          = 2026-02-27T02:08:58.905024
MEAN_MOTION    = 14.85641177
ECCENTRICITY   = .0022303
INCLINATION    = 82.5285
RA_OF_ASC_NODE = 51.9960
ARG_OF_PERICENTER = 74.4542
MEAN_ANOMALY   = 355.4191

EPHEMERIS_TYPE = 0
CLASSIFICATION_TYPE = U
NORAD_CAT_ID   = 19574
ELEMENT_SET_NO = 999
REV_AT_EPOCH   = 99946
BSTAR          = .59911E-4
MEAN_MOTION_DOT = .546E-5
MEAN_MOTION_DDOT = 0

CCSDS_OMM_VERS = 2.0
CREATION_DATE  = 
ORIGINATOR     = 

OBJECT_NAME    = SL-16 R/B
OBJECT_ID      = 1988-102B
CENTER_NAME    = EARTH
REF_FRAME      = TEME
TIME_SYSTEM    = UTC
MEAN_ELEMENT_THEORY = SGP/SGP4

EPOCH          = 2026-02-26T17:52:12.810144
MEAN_MOTION    = 14.16150283
ECCENTRICITY   = .00133031
INCLINATION    = 71.0003
RA_OF_ASC_NODE = 174.5245
ARG_OF_PERICENTER = 18.2505
MEAN_ANOMALY   = 341.9093

EPHEMERIS_TYPE = 0
CLASSIFICATION_TYPE = U
NORAD_CAT_ID   = 19650
ELEMENT_SET_NO = 999
REV_AT_EPOCH   = 92534
BSTAR          = -.10085369E-3
MEAN_MOTION_DOT = -.248E-5
MEAN_MOTION_DDOT = 0

CCSDS_OMM_VERS = 2.0
CREATION_DATE  = 
ORIGINATOR     = 

OBJECT_NAME    = INTERCOSMOS 24
OBJECT_ID      = 1989-080A
CENTER_NAME    = EARTH
REF_FRAME      = TEME
TIME_SYSTEM    = UTC
MEAN_ELEMENT_THEORY = SGP/SGP4

EPOCH          = 2026-02-27T03:49:08.541696
MEAN_MOTION    = 12.59539128
ECCENTRICITY   = .1186978
INCLINATION    = 82.6039
RA_OF_ASC_NODE = 111.2612
ARG_OF_PERICENTER = 317.2867
MEAN_ANOMALY   = 34.1624

EPHEMERIS_TYPE = 0
CLASSIFICATION_TYPE = U
NORAD_CAT_ID   = 20261
ELEMENT_SET_NO = 999
REV_AT_EPOCH   = 66547
BSTAR          = .1744E-3
MEAN_MOTION_DOT = .59E-5
MEAN_MOTION_DDOT = 0

CCSDS_OMM_VERS = 2.0
CREATION_DATE  = 
ORIGINATOR     = 

OBJECT_NAME    = SL-14 R/B
OBJECT_ID      = 1989-080C
CENTER_NAME    = EARTH
REF_FRAME      = TEME
TIME_SYSTEM    = UTC
MEAN_ELEMENT_THEORY = SGP/SGP4

EPOCH          = 2026-02-26T14:14:04.921728
MEAN_MOTION    = 12.50476890
ECCENTRICITY   = .1230125
INCLINATION    = 82.5970
RA_OF_ASC_NODE = 180.3078
ARG_OF_PERICENTER = 210.1107
MEAN_ANOMALY   = 142.3430

EPHEMERIS_TYPE = 0
CLASSIFICATION_TYPE = U
NORAD_CAT_ID   = 20262
ELEMENT_SET_NO = 999
REV_AT_EPOCH   = 65876
BSTAR          = .18472E-3
MEAN_MOTION_DOT = .62E-5
MEAN_MOTION_DDOT = 0

CCSDS_OMM_VERS = 2.0
CREATION_DATE  = 
ORIGINATOR     = 

OBJECT_NAME    = DELTA 1 R/B
OBJECT_ID      = 1989-089B
CENTER_NAME    = EARTH
REF_FRAME      = TEME
TIME_SYSTEM    = UTC
MEAN_ELEMENT_THEORY = SGP/SGP4

EPOCH          = 2026-02-27T03:16:26.834880
MEAN_MOTION    = 14.50652937
ECCENTRICITY   = .0069763
INCLINATION    = 97.0712
RA_OF_ASC_NODE = 267.2532
ARG_OF_PERICENTER = 154.8827
MEAN_ANOMALY   = 205.5791

EPHEMERIS_TYPE = 0
CLASSIFICATION_TYPE = U
NORAD_CAT_ID   = 20323
ELEMENT_SET_NO = 999
REV_AT_EPOCH   = 89420
BSTAR          = .96008E-4
MEAN_MOTION_DOT = .354E-5
MEAN_MOTION_DDOT = 0

CCSDS_OMM_VERS = 2.0
CREATION_DATE  = 
ORIGINATOR     = 

OBJECT_NAME    = ARIANE 40 R/B
OBJECT_ID      = 1990-005H
CENTER_NAME    = EARTH
REF_FRAME      = TEME
TIME_SYSTEM    = UTC
MEAN_ELEMENT_THEORY = SGP/SGP4

EPOCH          = 2026-02-27T02:41:05.688960
MEAN_MOTION    = 14.39862304
ECCENTRICITY   = .0009215
INCLINATION    = 98.3107
RA_OF_ASC_NODE = 119.0873
ARG_OF_PERICENTER = 231.8184
MEAN_ANOMALY   = 128.2175

EPHEMERIS_TYPE = 0
CLASSIFICATION_TYPE = U
NORAD_CAT_ID   = 20443
ELEMENT_SET_NO = 999
REV_AT_EPOCH   = 89128
BSTAR          = .94477E-4
MEAN_MOTION_DOT = .254E-5
MEAN_MOTION_DDOT = 0

